{
  "type": "FeatureCollection",
  "features": [
    {
      "type": "Feature",
      "properties": {
        "norad_id": 66174,
        "name": "HTV-X1",
        "group": "stations",
        "lat": 31.4817199559278,
        "lon": 132.52641240769773,
        "alt_km": 414.8530719906612,
        "timestamp": "2025-12-20T14:38:00.719139+00:00",
        "meta_object_name": "HTV-X1",
        "meta_object_id": "2025-241A",
        "meta_epoch": "2025-12-20T05:10:04.568160",
        "meta_mean_motion": 15.49679666,
        "meta_eccentricity": 0.00031985,
        "meta_inclination": 51.6321,
        "meta_ra_of_asc_node": 105.4589,
        "meta_arg_of_pericenter": 275.1086,
        "meta_mean_anomaly": 84.9538,
        "meta_ephemeris_type": 0,
        "meta_classification_type": "U",
        "meta_norad_cat_id": 66174,
        "meta_element_set_no": 999,
        "meta_rev_at_epoch": 51,
        "meta_bstar": 0.00013176766,
        "meta_mean_motion_dot": 6.989e-05,
        "meta_mean_motion_ddot": 0,
        "tle_line1": "1 66174U 25241A   25354.21533065  .00006989  00000+0  13177-3 0  9995",
        "tle_line2": "2 66174  51.6321 105.4589 0003198 275.1086  84.9538 15.49679666   518"
      },
      "geometry": {
        "type": "Point",
        "coordinates": [
          132.52641240769773,
          31.4817199559278
        ]
      }
    },
    {
      "type": "Feature",
      "properties": {
        "norad_id": 66515,
        "name": "SZ-21 MODULE",
        "group": "stations",
        "lat": 40.4880623470093,
        "lon": 72.9123328244581,
        "alt_km": 376.2610470068694,
        "timestamp": "2025-12-20T14:38:00.719153+00:00",
        "meta_object_name": "SZ-21 MODULE",
        "meta_object_id": "2025-246C",
        "meta_epoch": "2025-12-20T00:23:58.587648",
        "meta_mean_motion": 15.62845969,
        "meta_eccentricity": 0.00056139,
        "meta_inclination": 41.4774,
        "meta_ra_of_asc_node": 331.6436,
        "meta_arg_of_pericenter": 298.6843,
        "meta_mean_anomaly": 61.3432,
        "meta_ephemeris_type": 0,
        "meta_classification_type": "U",
        "meta_norad_cat_id": 66515,
        "meta_element_set_no": 999,
        "meta_rev_at_epoch": 558,
        "meta_bstar": 0.00022500266,
        "meta_mean_motion_dot": 0.00020613,
        "meta_mean_motion_ddot": 0,
        "tle_line1": "1 66515U 25246C   25354.01665032  .00020613  00000+0  22500-3 0  9997",
        "tle_line2": "2 66515  41.4774 331.6436 0005613 298.6843  61.3432 15.62845969  5585"
      },
      "geometry": {
        "type": "Point",
        "coordinates": [
          72.9123328244581,
          40.4880623470093
        ]
      }
    },
    {
      "type": "Feature",
      "properties": {
        "norad_id": 66645,
        "name": "SHENZHOU-22",
        "group": "stations",
        "lat": 40.95373968974075,
        "lon": 69.57619737686102,
        "alt_km": 377.13882319351706,
        "timestamp": "2025-12-20T14:38:00.719165+00:00",
        "meta_object_name": "SHENZHOU-22",
        "meta_object_id": "2025-272A",
        "meta_epoch": "2025-12-20T04:59:38.766912",
        "meta_mean_motion": 15.59496428,
        "meta_eccentricity": 0.00077465,
        "meta_inclination": 41.4685,
        "meta_ra_of_asc_node": 331.3573,
        "meta_arg_of_pericenter": 96.7908,
        "meta_mean_anomaly": 263.3812,
        "meta_ephemeris_type": 0,
        "meta_classification_type": "U",
        "meta_norad_cat_id": 66645,
        "meta_element_set_no": 999,
        "meta_rev_at_epoch": 26519,
        "meta_bstar": 0.00022776024,
        "meta_mean_motion_dot": 0.00018311,
        "meta_mean_motion_ddot": 0,
        "tle_line1": "1 66645U 25272A   25354.20808758  .00018311  00000+0  22776-3 0  9992",
        "tle_line2": "2 66645  41.4685 331.3573 0007746  96.7908 263.3812 15.59496428265196"
      },
      "geometry": {
        "type": "Point",
        "coordinates": [
          69.57619737686102,
          40.95373968974075
        ]
      }
    },
    {
      "type": "Feature",
      "properties": {
        "norad_id": 66664,
        "name": "SOYUZ-MS 28",
        "group": "stations",
        "lat": 31.481721551497653,
        "lon": 132.52641439330966,
        "alt_km": 414.8530718047623,
        "timestamp": "2025-12-20T14:38:00.719175+00:00",
        "meta_object_name": "SOYUZ-MS 28",
        "meta_object_id": "2025-275A",
        "meta_epoch": "2025-12-20T05:10:04.568160",
        "meta_mean_motion": 15.49679666,
        "meta_eccentricity": 0.00031985,
        "meta_inclination": 51.6321,
        "meta_ra_of_asc_node": 105.4589,
        "meta_arg_of_pericenter": 275.1086,
        "meta_mean_anomaly": 84.9538,
        "meta_ephemeris_type": 0,
        "meta_classification_type": "U",
        "meta_norad_cat_id": 66664,
        "meta_element_set_no": 999,
        "meta_rev_at_epoch": 128,
        "meta_bstar": 0.00013176766,
        "meta_mean_motion_dot": 6.989e-05,
        "meta_mean_motion_ddot": 0,
        "tle_line1": "1 66664U 25275A   25354.21533065  .00006989  00000+0  13177-3 0  9996",
        "tle_line2": "2 66664  51.6321 105.4589 0003198 275.1086  84.9538 15.49679666  1287"
      },
      "geometry": {
        "type": "Point",
        "coordinates": [
          132.52641439330966,
          31.481721551497653
        ]
      }
    },
    {
      "type": "Feature",
      "properties": {
        "norad_id": 66906,
        "name": "1998-067XS",
        "group": "stations",
        "lat": 49.44725897196249,
        "lon": -144.43032558576928,
        "alt_km": 408.5675163429769,
        "timestamp": "2025-12-20T14:38:00.719185+00:00",
        "meta_object_name": "1998-067XS",
        "meta_object_id": "1998-067XS",
        "meta_epoch": "2025-12-19T19:37:45.032448",
        "meta_mean_motion": 15.50933488,
        "meta_eccentricity": 0.00029661,
        "meta_inclination": 51.6311,
        "meta_ra_of_asc_node": 107.3061,
        "meta_arg_of_pericenter": 238.2809,
        "meta_mean_anomaly": 121.7891,
        "meta_ephemeris_type": 0,
        "meta_classification_type": "U",
        "meta_norad_cat_id": 66906,
        "meta_element_set_no": 999,
        "meta_rev_at_epoch": 271,
        "meta_bstar": 0.00034986922,
        "meta_mean_motion_dot": 0.00020233,
        "meta_mean_motion_ddot": 0,
        "tle_line1": "1 66906U 98067XS  25353.81788232  .00020233  00000+0  34987-3 0  9997",
        "tle_line2": "2 66906  51.6311 107.3061 0002966 238.2809 121.7891 15.50933488  2714"
      },
      "geometry": {
        "type": "Point",
        "coordinates": [
          -144.43032558576928,
          49.44725897196249
        ]
      }
    },
    {
      "type": "Feature",
      "properties": {
        "norad_id": 66907,
        "name": "1998-067XT",
        "group": "stations",
        "lat": 21.335287940076302,
        "lon": -94.75376048472711,
        "alt_km": 408.6759684721901,
        "timestamp": "2025-12-20T14:38:00.719195+00:00",
        "meta_object_name": "1998-067XT",
        "meta_object_id": "1998-067XT",
        "meta_epoch": "2025-12-19T11:42:50.767776",
        "meta_mean_motion": 15.52255247,
        "meta_eccentricity": 0.0003998,
        "meta_inclination": 51.6306,
        "meta_ra_of_asc_node": 108.8528,
        "meta_arg_of_pericenter": 265.7173,
        "meta_mean_anomaly": 94.336,
        "meta_ephemeris_type": 0,
        "meta_classification_type": "U",
        "meta_norad_cat_id": 66907,
        "meta_element_set_no": 999,
        "meta_rev_at_epoch": 266,
        "meta_bstar": 0.00077339,
        "meta_mean_motion_dot": 0.00047666,
        "meta_mean_motion_ddot": 0,
        "tle_line1": "1 66907U 98067XT  25353.48808759  .00047666  00000+0  77339-3 0  9995",
        "tle_line2": "2 66907  51.6306 108.8528 0003998 265.7173  94.3360 15.52255247  2660"
      },
      "geometry": {
        "type": "Point",
        "coordinates": [
          -94.75376048472711,
          21.335287940076302
        ]
      }
    },
    {
      "type": "Feature",
      "properties": {
        "norad_id": 66908,
        "name": "1998-067XU",
        "group": "stations",
        "lat": 17.918940723506214,
        "lon": -91.58238782137036,
        "alt_km": 408.57342126000367,
        "timestamp": "2025-12-20T14:38:00.719206+00:00",
        "meta_object_name": "1998-067XU",
        "meta_object_id": "1998-067XU",
        "meta_epoch": "2025-12-18T14:03:56.443680",
        "meta_mean_motion": 15.52259493,
        "meta_eccentricity": 0.00039838,
        "meta_inclination": 51.6306,
        "meta_ra_of_asc_node": 113.3296,
        "meta_arg_of_pericenter": 260.0245,
        "meta_mean_anomaly": 100.0295,
        "meta_ephemeris_type": 0,
        "meta_classification_type": "U",
        "meta_norad_cat_id": 66908,
        "meta_element_set_no": 999,
        "meta_rev_at_epoch": 252,
        "meta_bstar": 0.00087908108,
        "meta_mean_motion_dot": 0.00054298,
        "meta_mean_motion_ddot": 0,
        "tle_line1": "1 66908U 98067XU  25352.58606995  .00054298  00000+0  87908-3 0  9996",
        "tle_line2": "2 66908  51.6306 113.3296 0003983 260.0245 100.0295 15.52259493  2520"
      },
      "geometry": {
        "type": "Point",
        "coordinates": [
          -91.58238782137036,
          17.918940723506214
        ]
      }
    }
  ]
}